start=new Date('2022-11-06T00:00:00.000Z').valueOf();
sats=[{"BSTAR":"0.00000607910000","TLE_LINE2":"2 52848  53.2190 110.7789 0002327  38.6782 321.4376 15.08836010 21618","OBJECT_NAME":"STARLINK-4202","ARG_OF_PERICENTER":"38.6782","REV_AT_EPOCH":"2161","MEAN_MOTION_DDOT":"0.0000000000000","ECCENTRICITY":"0.00023270","RCS_SIZE":"LARGE","TIME_SYSTEM":"UTC","MEAN_MOTION":"15.08836010","GP_ID":"217020431","CENTER_NAME":"EARTH","SEMIMAJOR_AXIS":"6917.893","RA_OF_ASC_NODE":"110.7789","MEAN_ELEMENT_THEORY":"SGP4","MEAN_ANOMALY":"321.4376","OBJECT_TYPE":"PAYLOAD","OBJECT_ID":"2022-062U","FILE":"3646512","LAUNCH_DATE":"2022-06-17","PERIAPSIS":"538.148","REF_FRAME":"TEME","COUNTRY_CODE":"US","CLASSIFICATION_TYPE":"U","TLE_LINE1":"1 52848U 22062U   22309.72205443 -.00000192  00000-0  60791-5 0  9993","SITE":"AFETR","APOAPSIS":"541.367","NORAD_CAT_ID":"52848","DECAY_DATE":null,"EPOCH":"2022-11-05T17:19:45.502752","INCLINATION":"53.2190","MEAN_MOTION_DOT":"-0.00000192","ELEMENT_SET_NO":"999","EPHEMERIS_TYPE":"0","PERIOD":"95.438"},{"CLASSIFICATION_TYPE":"U","APOAPSIS":"541.314","TLE_LINE1":"1 52849U 22062V   22309.69721586 -.00000426  00000-0 -86411-5 0  9999","SITE":"AFETR","INCLINATION":"53.2174","EPOCH":"2022-11-05T16:43:59.450304","DECAY_DATE":null,"NORAD_CAT_ID":"52849","PERIOD":"95.438","EPHEMERIS_TYPE":"0","ELEMENT_SET_NO":"999","MEAN_MOTION_DOT":"-0.00000426","ECCENTRICITY":"0.00022550","MEAN_MOTION_DDOT":"0.0000000000000","REV_AT_EPOCH":"2174","ARG_OF_PERICENTER":"39.3927","OBJECT_NAME":"STARLINK-4197","BSTAR":"-0.00000864110000","TLE_LINE2":"2 52849  53.2174 100.8707 0002255  39.3927 320.7229 15.08837251 21741","MEAN_ANOMALY":"320.7229","RA_OF_ASC_NODE":"100.8707","MEAN_ELEMENT_THEORY":"SGP4","SEMIMAJOR_AXIS":"6917.889","CENTER_NAME":"EARTH","GP_ID":"217020777","MEAN_MOTION":"15.08837251","RCS_SIZE":"LARGE","TIME_SYSTEM":"UTC","OBJECT_ID":"2022-062V","OBJECT_TYPE":"PAYLOAD","COUNTRY_CODE":"US","REF_FRAME":"TEME","PERIAPSIS":"538.194","LAUNCH_DATE":"2022-06-17","FILE":"3646512"},{"RA_OF_ASC_NODE":"110.8239","MEAN_ELEMENT_THEORY":"SGP4","MEAN_ANOMALY":"308.0773","CENTER_NAME":"EARTH","SEMIMAJOR_AXIS":"6917.886","MEAN_MOTION":"15.08838021","GP_ID":"217021022","TIME_SYSTEM":"UTC","RCS_SIZE":"LARGE","ECCENTRICITY":"0.00014100","REV_AT_EPOCH":"2161","MEAN_MOTION_DDOT":"0.0000000000000","ARG_OF_PERICENTER":"52.0346","TLE_LINE2":"2 52850  53.2180 110.8239 0001410  52.0346 308.0773 15.08838021 21615","BSTAR":"-0.00000884700000","OBJECT_NAME":"STARLINK-4187","REF_FRAME":"TEME","COUNTRY_CODE":"US","PERIAPSIS":"538.776","LAUNCH_DATE":"2022-06-17","FILE":"3646512","OBJECT_ID":"2022-062W","OBJECT_TYPE":"PAYLOAD","SITE":"AFETR","TLE_LINE1":"1 52850U 22062W   22309.70733452 -.00000429  00000-0 -88470-5 0  9998","APOAPSIS":"540.727","CLASSIFICATION_TYPE":"U","PERIOD":"95.438","EPHEMERIS_TYPE":"0","ELEMENT_SET_NO":"999","MEAN_MOTION_DOT":"-0.00000429","INCLINATION":"53.2180","EPOCH":"2022-11-05T16:58:33.702528","NORAD_CAT_ID":"52850","DECAY_DATE":null},{"ARG_OF_PERICENTER":"36.6606","TLE_LINE2":"2 52851  53.2175 100.8892 0001977  36.6606 323.4521 15.08842595 21746","BSTAR":"-0.00007561800000","OBJECT_NAME":"STARLINK-3809","ECCENTRICITY":"0.00019770","REV_AT_EPOCH":"2174","MEAN_MOTION_DDOT":"0.0000000000000","MEAN_MOTION":"15.08842595","GP_ID":"217021369","RCS_SIZE":"LARGE","TIME_SYSTEM":"UTC","MEAN_ELEMENT_THEORY":"SGP4","RA_OF_ASC_NODE":"100.8892","MEAN_ANOMALY":"323.4521","CENTER_NAME":"EARTH","SEMIMAJOR_AXIS":"6917.872","OBJECT_TYPE":"PAYLOAD","OBJECT_ID":"2022-062X","LAUNCH_DATE":"2022-06-17","FILE":"3646512","REF_FRAME":"TEME","COUNTRY_CODE":"US","PERIAPSIS":"538.370","CLASSIFICATION_TYPE":"U","SITE":"AFETR","TLE_LINE1":"1 52851U 22062X   22309.69353158 -.00001492  00000-0 -75618-4 0  9998","APOAPSIS":"541.105","EPOCH":"2022-11-05T16:38:41.128512","NORAD_CAT_ID":"52851","DECAY_DATE":null,"INCLINATION":"53.2175","EPHEMERIS_TYPE":"0","ELEMENT_SET_NO":"999","MEAN_MOTION_DOT":"-0.00001492","PERIOD":"95.437"},{"CLASSIFICATION_TYPE":"U","TLE_LINE1":"1 52852U 22062Y   22309.70090668  .00007338  00000-0  47920-3 0  9992","SITE":"AFETR","APOAPSIS":"541.596","INCLINATION":"53.2169","EPOCH":"2022-11-05T16:49:18.337152","NORAD_CAT_ID":"52852","DECAY_DATE":null,"PERIOD":"95.440","EPHEMERIS_TYPE":"0","ELEMENT_SET_NO":"999","MEAN_MOTION_DOT":"0.00007338","ECCENTRICITY":"0.00024910","REV_AT_EPOCH":"2174","MEAN_MOTION_DDOT":"0.0000000000000","ARG_OF_PERICENTER":"47.4166","TLE_LINE2":"2 52852  53.2169 100.8599 0002491  47.4166 312.7036 15.08798242 21748","BSTAR":"0.00047920000000","OBJECT_NAME":"STARLINK-4184","MEAN_ELEMENT_THEORY":"SGP4","RA_OF_ASC_NODE":"100.8599","MEAN_ANOMALY":"312.7036","CENTER_NAME":"EARTH","SEMIMAJOR_AXIS":"6918.008","MEAN_MOTION":"15.08798242","GP_ID":"217020849","RCS_SIZE":"LARGE","TIME_SYSTEM":"UTC","OBJECT_ID":"2022-062Y","OBJECT_TYPE":"PAYLOAD","REF_FRAME":"TEME","COUNTRY_CODE":"US","PERIAPSIS":"538.150","LAUNCH_DATE":"2022-06-17","FILE":"3646512"},{"OBJECT_NAME":"STARLINK-4189","TLE_LINE2":"2 52853  53.2178 100.9206 0001852  37.3722 322.7399 15.08869918 21743","BSTAR":"-0.00053085000000","ARG_OF_PERICENTER":"37.3722","MEAN_MOTION_DDOT":"0.0000000000000","REV_AT_EPOCH":"2174","ECCENTRICITY":"0.00018520","TIME_SYSTEM":"UTC","RCS_SIZE":"LARGE","GP_ID":"217021195","MEAN_MOTION":"15.08869918","SEMIMAJOR_AXIS":"6917.789","CENTER_NAME":"EARTH","MEAN_ANOMALY":"322.7399","RA_OF_ASC_NODE":"100.9206","MEAN_ELEMENT_THEORY":"SGP4","OBJECT_TYPE":"PAYLOAD","OBJECT_ID":"2022-062Z","FILE":"3646512","LAUNCH_DATE":"2022-06-17","PERIAPSIS":"538.373","COUNTRY_CODE":"US","REF_FRAME":"TEME","CLASSIFICATION_TYPE":"U","SITE":"AFETR","TLE_LINE1":"1 52853U 22062Z   22309.68616358 -.00008734  00000-0 -53085-3 0  9992","APOAPSIS":"540.935","DECAY_DATE":null,"NORAD_CAT_ID":"52853","EPOCH":"2022-11-05T16:28:04.533312","INCLINATION":"53.2178","MEAN_MOTION_DOT":"-0.00008734","ELEMENT_SET_NO":"999","EPHEMERIS_TYPE":"0","PERIOD":"95.436"},{"CLASSIFICATION_TYPE":"U","TLE_LINE1":"1 52854U 22062AA  22309.68985702 -.00001140  00000-0 -53514-4 0  9997","SITE":"AFETR","APOAPSIS":"540.949","INCLINATION":"53.2244","EPOCH":"2022-11-05T16:33:23.646528","NORAD_CAT_ID":"52854","DECAY_DATE":null,"PERIOD":"95.438","EPHEMERIS_TYPE":"0","ELEMENT_SET_NO":"999","MEAN_MOTION_DOT":"-0.00001140","ECCENTRICITY":"0.00017370","REV_AT_EPOCH":"2174","MEAN_MOTION_DDOT":"0.0000000000000","ARG_OF_PERICENTER":"337.8833","TLE_LINE2":"2 52854  53.2244 100.9042 0001737 337.8833  22.2084 15.08839344 21742","BSTAR":"-0.00005351400000","OBJECT_NAME":"STARLINK-4204","RA_OF_ASC_NODE":"100.9042","MEAN_ELEMENT_THEORY":"SGP4","MEAN_ANOMALY":"22.2084","CENTER_NAME":"EARTH","SEMIMAJOR_AXIS":"6917.882","GP_ID":"217020605","MEAN_MOTION":"15.08839344","TIME_SYSTEM":"UTC","RCS_SIZE":"LARGE","OBJECT_ID":"2022-062AA","OBJECT_TYPE":"PAYLOAD","REF_FRAME":"TEME","COUNTRY_CODE":"US","PERIAPSIS":"538.546","LAUNCH_DATE":"2022-06-17","FILE":"3646512"},{"PERIOD":"95.438","MEAN_MOTION_DOT":"-0.00002812","ELEMENT_SET_NO":"999","EPHEMERIS_TYPE":"0","INCLINATION":"53.2155","DECAY_DATE":null,"NORAD_CAT_ID":"52855","EPOCH":"2022-11-05T13:06:43.123680","TLE_LINE1":"1 52855U 22062AB  22309.54633245 -.00002812  00000-0 -15864-3 0  9997","APOAPSIS":"540.908","SITE":"AFETR","CLASSIFICATION_TYPE":"U","PERIAPSIS":"538.608","COUNTRY_CODE":"US","REF_FRAME":"TEME","FILE":"3646512","LAUNCH_DATE":"2022-06-17","OBJECT_ID":"2022-062AB","OBJECT_TYPE":"PAYLOAD","SEMIMAJOR_AXIS":"6917.893","CENTER_NAME":"EARTH","MEAN_ANOMALY":"308.2570","MEAN_ELEMENT_THEORY":"SGP4","RA_OF_ASC_NODE":"101.5489","RCS_SIZE":"LARGE","TIME_SYSTEM":"UTC","MEAN_MOTION":"15.08835905","GP_ID":"217021642","MEAN_MOTION_DDOT":"0.0000000000000","REV_AT_EPOCH":"2172","ECCENTRICITY":"0.00016620","OBJECT_NAME":"STARLINK-4209","BSTAR":"-0.00015864000000","TLE_LINE2":"2 52855  53.2155 101.5489 0001662  51.8571 308.2570 15.08835905 21729","ARG_OF_PERICENTER":"51.8571"},{"MEAN_ANOMALY":"301.7805","MEAN_ELEMENT_THEORY":"SGP4","RA_OF_ASC_NODE":"100.9371","SEMIMAJOR_AXIS":"6917.907","CENTER_NAME":"EARTH","MEAN_MOTION":"15.08831258","GP_ID":"217020432","TIME_SYSTEM":"UTC","RCS_SIZE":"LARGE","ECCENTRICITY":"0.00015300","MEAN_MOTION_DDOT":"0.0000000000000","REV_AT_EPOCH":"2174","ARG_OF_PERICENTER":"58.3336","OBJECT_NAME":"STARLINK-4201","TLE_LINE2":"2 52856  53.2179 100.9371 0001530  58.3336 301.7805 15.08831258 21742","BSTAR":"-0.00001984400000","COUNTRY_CODE":"US","REF_FRAME":"TEME","PERIAPSIS":"538.714","LAUNCH_DATE":"2022-06-17","FILE":"3646512","OBJECT_ID":"2022-062AC","OBJECT_TYPE":"PAYLOAD","SITE":"AFETR","TLE_LINE1":"1 52856U 22062AC  22309.68249938 -.00000604  00000-0 -19844-4 0  9995","APOAPSIS":"540.831","CLASSIFICATION_TYPE":"U","PERIOD":"95.438","ELEMENT_SET_NO":"999","EPHEMERIS_TYPE":"0","MEAN_MOTION_DOT":"-0.00000604","INCLINATION":"53.2179","EPOCH":"2022-11-05T16:22:47.946432","DECAY_DATE":null,"NORAD_CAT_ID":"52856"},{"OBJECT_ID":"2022-062AD","OBJECT_TYPE":"PAYLOAD","REF_FRAME":"TEME","COUNTRY_CODE":"US","PERIAPSIS":"538.688","LAUNCH_DATE":"2022-06-17","FILE":"3646512","ECCENTRICITY":"0.00015450","REV_AT_EPOCH":"2173","MEAN_MOTION_DDOT":"0.0000000000000","ARG_OF_PERICENTER":"57.6792","BSTAR":"0.00016394000000","TLE_LINE2":"2 52857  53.2165 101.2833 0001545  57.6792 302.4349 15.08836109 21739","OBJECT_NAME":"STARLINK-4199","MEAN_ELEMENT_THEORY":"SGP4","RA_OF_ASC_NODE":"101.2833","MEAN_ANOMALY":"302.4349","CENTER_NAME":"EARTH","SEMIMAJOR_AXIS":"6917.892","GP_ID":"217020778","MEAN_MOTION":"15.08836109","TIME_SYSTEM":"UTC","RCS_SIZE":"LARGE","INCLINATION":"53.2165","EPOCH":"2022-11-05T14:31:30.733248","NORAD_CAT_ID":"52857","DECAY_DATE":null,"PERIOD":"95.438","EPHEMERIS_TYPE":"0","ELEMENT_SET_NO":"999","MEAN_MOTION_DOT":"0.00002322","CLASSIFICATION_TYPE":"U","SITE":"AFETR","TLE_LINE1":"1 52857U 22062AD  22309.60521682  .00002322  00000-0  16394-3 0  9990","APOAPSIS":"540.826"}];
